QIANFAN-1               
1 60379U 24140A   26196.84625021  .00000116  00000+0  16045-3 0  9994
2 60379  88.9733 276.9591 0015570 318.4028  41.5938 13.51020369 96395
QIANFAN-2               
1 60380U 24140B   26196.87513481  .00000105  00000+0  14462-3 0  9994
2 60380  88.9719 276.7662 0010388 287.0788  72.9225 13.51016105 96451
QIANFAN-3               
1 60381U 24140C   26196.88332620  .00000101  00000+0  13836-3 0  9990
2 60381  88.9712 276.8817 0011647 302.0293  57.9726 13.51017139 96363
QIANFAN-4               
1 60382U 24140D   26196.78449774  .00000112  00000+0  15419-3 0  9990
2 60382  88.9737 276.8437 0010639 290.5658  69.4351 13.51020195 96475
QIANFAN-5               
1 60383U 24140E   26196.90800551  .00000108  00000+0  14908-3 0  9996
2 60383  88.9711 276.9037 0013126 314.7505  45.2577 13.51010837 96350
QIANFAN-6               
1 60384U 24140F   26196.92852085  .00000108  00000+0  14884-3 0  9991
2 60384  88.9738 276.7062 0010827 297.2551  62.7497 13.51019033 96551
QIANFAN-7               
1 60385U 24140G   26196.83209334  .00000298  00000+0  11425-3 0  9993
2 60385  88.9767 268.4094 0016998  59.7466 300.5409 14.27864929101085
QIANFAN-8               
1 60386U 24140H   26196.86274079  .00000102  00000+0  14023-3 0  9996
2 60386  88.9740 276.9532 0014310 299.2761  60.6960 13.51015374 96394
QIANFAN-9               
1 60387U 24140J   26196.91201929  .00000113  00000+0  15694-3 0  9994
2 60387  88.9737 277.0191 0013987 298.8737  61.1010 13.51021070 96382
QIANFAN-10              
1 60388U 24140K   26196.91614182  .00000120  00000+0  16757-3 0  9993
2 60388  88.9748 276.3882 0012346 272.2423  87.7314 13.51022264 96512
QIANFAN-11              
1 60389U 24140L   26196.87916345  .00000107  00000+0  14668-3 0  9999
2 60389  88.9673 276.8174 0012029 299.1520  60.8426 13.51016129 96163
QIANFAN-12              
1 60390U 24140M   26196.89980142  .00000089  00000+0  11935-3 0  9992
2 60390  88.9716 276.9524 0010988 309.2662  50.7514 13.51018298 96294
QIANFAN-13              
1 60391U 24140N   26196.87095876  .00000099  00000+0  13547-3 0  9994
2 60391  88.9728 277.0813 0010870 312.5896  47.4338 13.51018372 96310
QIANFAN-14              
1 60392U 24140P   26196.89572250  .00000093  00000+0  12596-3 0  9990
2 60392  88.9707 276.9309 0014533 310.9197  49.0695 13.51011917 96325
QIANFAN-15              
1 60393U 24140Q   26196.90388697  .00000088  00000+0  11755-3 0  9993
2 60393  88.9731 276.9377 0010108 296.0590  63.9520 13.51012343 96318
QIANFAN-16              
1 60394U 24140R   26196.89157206  .00000103  00000+0  14097-3 0  9992
2 60394  88.9734 277.0652 0012588 316.2233  43.7919 13.51020342 96229
