{"fetched_at":"2026-07-16T06:42:36.857Z","source":"https://celestrak.org/NORAD/elements/gp.php?GROUP=qianfan&FORMAT=JSON","constellation":"qianfan","records":[{"OBJECT_NAME":"QIANFAN-1","OBJECT_ID":"2024-140A","EPOCH":"2026-07-15T20:18:36.018144","CLASSIFICATION_TYPE":"U","MEAN_MOTION":13.51020369,"ECCENTRICITY":0.00155707,"INCLINATION":88.9733,"RA_OF_ASC_NODE":276.9591,"ARG_OF_PERICENTER":318.4028,"MEAN_ANOMALY":41.5938,"EPHEMERIS_TYPE":0,"NORAD_CAT_ID":60379,"ELEMENT_SET_NO":999,"REV_AT_EPOCH":9639,"BSTAR":0.00016044576,"MEAN_MOTION_DOT":0.00000116,"MEAN_MOTION_DDOT":0},{"OBJECT_NAME":"QIANFAN-2","OBJECT_ID":"2024-140B","EPOCH":"2026-07-15T21:00:11.647584","CLASSIFICATION_TYPE":"U","MEAN_MOTION":13.51016105,"ECCENTRICITY":0.0010388,"INCLINATION":88.9719,"RA_OF_ASC_NODE":276.7662,"ARG_OF_PERICENTER":287.0788,"MEAN_ANOMALY":72.9225,"EPHEMERIS_TYPE":0,"NORAD_CAT_ID":60380,"ELEMENT_SET_NO":999,"REV_AT_EPOCH":9645,"BSTAR":0.00014461991,"MEAN_MOTION_DOT":0.00000105,"MEAN_MOTION_DDOT":0},{"OBJECT_NAME":"QIANFAN-3","OBJECT_ID":"2024-140C","EPOCH":"2026-07-15T21:11:59.383680","CLASSIFICATION_TYPE":"U","MEAN_MOTION":13.51017139,"ECCENTRICITY":0.00116478,"INCLINATION":88.9712,"RA_OF_ASC_NODE":276.8817,"ARG_OF_PERICENTER":302.0293,"MEAN_ANOMALY":57.9726,"EPHEMERIS_TYPE":0,"NORAD_CAT_ID":60381,"ELEMENT_SET_NO":999,"REV_AT_EPOCH":9636,"BSTAR":0.00013835786,"MEAN_MOTION_DOT":0.00000101,"MEAN_MOTION_DDOT":0},{"OBJECT_NAME":"QIANFAN-4","OBJECT_ID":"2024-140D","EPOCH":"2026-07-15T18:49:40.604736","CLASSIFICATION_TYPE":"U","MEAN_MOTION":13.51020195,"ECCENTRICITY":0.00106391,"INCLINATION":88.9737,"RA_OF_ASC_NODE":276.8437,"ARG_OF_PERICENTER":290.5658,"MEAN_ANOMALY":69.4351,"EPHEMERIS_TYPE":0,"NORAD_CAT_ID":60382,"ELEMENT_SET_NO":999,"REV_AT_EPOCH":9647,"BSTAR":0.0001541903,"MEAN_MOTION_DOT":0.00000112,"MEAN_MOTION_DDOT":0},{"OBJECT_NAME":"QIANFAN-5","OBJECT_ID":"2024-140E","EPOCH":"2026-07-15T21:47:31.676064","CLASSIFICATION_TYPE":"U","MEAN_MOTION":13.51010837,"ECCENTRICITY":0.00131268,"INCLINATION":88.9711,"RA_OF_ASC_NODE":276.9037,"ARG_OF_PERICENTER":314.7505,"MEAN_ANOMALY":45.2577,"EPHEMERIS_TYPE":0,"NORAD_CAT_ID":60383,"ELEMENT_SET_NO":999,"REV_AT_EPOCH":9635,"BSTAR":0.00014907883,"MEAN_MOTION_DOT":0.00000108,"MEAN_MOTION_DDOT":0},{"OBJECT_NAME":"QIANFAN-6","OBJECT_ID":"2024-140F","EPOCH":"2026-07-15T22:17:04.201440","CLASSIFICATION_TYPE":"U","MEAN_MOTION":13.51019033,"ECCENTRICITY":0.00108274,"INCLINATION":88.9738,"RA_OF_ASC_NODE":276.7062,"ARG_OF_PERICENTER":297.2551,"MEAN_ANOMALY":62.7497,"EPHEMERIS_TYPE":0,"NORAD_CAT_ID":60384,"ELEMENT_SET_NO":999,"REV_AT_EPOCH":9655,"BSTAR":0.00014884497,"MEAN_MOTION_DOT":0.00000108,"MEAN_MOTION_DDOT":0},{"OBJECT_NAME":"QIANFAN-7","OBJECT_ID":"2024-140G","EPOCH":"2026-07-15T19:58:12.864576","CLASSIFICATION_TYPE":"U","MEAN_MOTION":14.27864929,"ECCENTRICITY":0.00169987,"INCLINATION":88.9767,"RA_OF_ASC_NODE":268.4094,"ARG_OF_PERICENTER":59.7466,"MEAN_ANOMALY":300.5409,"EPHEMERIS_TYPE":0,"NORAD_CAT_ID":60385,"ELEMENT_SET_NO":999,"REV_AT_EPOCH":10108,"BSTAR":0.00011424683,"MEAN_MOTION_DOT":0.00000298,"MEAN_MOTION_DDOT":0},{"OBJECT_NAME":"QIANFAN-8","OBJECT_ID":"2024-140H","EPOCH":"2026-07-15T20:42:20.804256","CLASSIFICATION_TYPE":"U","MEAN_MOTION":13.51015374,"ECCENTRICITY":0.00143107,"INCLINATION":88.974,"RA_OF_ASC_NODE":276.9532,"ARG_OF_PERICENTER":299.2761,"MEAN_ANOMALY":60.696,"EPHEMERIS_TYPE":0,"NORAD_CAT_ID":60386,"ELEMENT_SET_NO":999,"REV_AT_EPOCH":9639,"BSTAR":0.00014022776,"MEAN_MOTION_DOT":0.00000102,"MEAN_MOTION_DDOT":0},{"OBJECT_NAME":"QIANFAN-9","OBJECT_ID":"2024-140J","EPOCH":"2026-07-15T21:53:18.466656","CLASSIFICATION_TYPE":"U","MEAN_MOTION":13.5102107,"ECCENTRICITY":0.00139874,"INCLINATION":88.9737,"RA_OF_ASC_NODE":277.0191,"ARG_OF_PERICENTER":298.8737,"MEAN_ANOMALY":61.101,"EPHEMERIS_TYPE":0,"NORAD_CAT_ID":60387,"ELEMENT_SET_NO":999,"REV_AT_EPOCH":9638,"BSTAR":0.00015693929,"MEAN_MOTION_DOT":0.00000113,"MEAN_MOTION_DDOT":0},{"OBJECT_NAME":"QIANFAN-10","OBJECT_ID":"2024-140K","EPOCH":"2026-07-15T21:59:14.653248","CLASSIFICATION_TYPE":"U","MEAN_MOTION":13.51022264,"ECCENTRICITY":0.00123467,"INCLINATION":88.9748,"RA_OF_ASC_NODE":276.3882,"ARG_OF_PERICENTER":272.2423,"MEAN_ANOMALY":87.7314,"EPHEMERIS_TYPE":0,"NORAD_CAT_ID":60388,"ELEMENT_SET_NO":999,"REV_AT_EPOCH":9651,"BSTAR":0.00016756656,"MEAN_MOTION_DOT":0.0000012,"MEAN_MOTION_DDOT":0},{"OBJECT_NAME":"QIANFAN-11","OBJECT_ID":"2024-140L","EPOCH":"2026-07-15T21:05:59.722080","CLASSIFICATION_TYPE":"U","MEAN_MOTION":13.51016129,"ECCENTRICITY":0.00120291,"INCLINATION":88.9673,"RA_OF_ASC_NODE":276.8174,"ARG_OF_PERICENTER":299.152,"MEAN_ANOMALY":60.8426,"EPHEMERIS_TYPE":0,"NORAD_CAT_ID":60389,"ELEMENT_SET_NO":999,"REV_AT_EPOCH":9616,"BSTAR":0.00014667781,"MEAN_MOTION_DOT":0.00000107,"MEAN_MOTION_DDOT":0},{"OBJECT_NAME":"QIANFAN-12","OBJECT_ID":"2024-140M","EPOCH":"2026-07-15T21:35:42.842688","CLASSIFICATION_TYPE":"U","MEAN_MOTION":13.51018298,"ECCENTRICITY":0.00109888,"INCLINATION":88.9716,"RA_OF_ASC_NODE":276.9524,"ARG_OF_PERICENTER":309.2662,"MEAN_ANOMALY":50.7514,"EPHEMERIS_TYPE":0,"NORAD_CAT_ID":60390,"ELEMENT_SET_NO":999,"REV_AT_EPOCH":9629,"BSTAR":0.00011935467,"MEAN_MOTION_DOT":8.9e-7,"MEAN_MOTION_DDOT":0},{"OBJECT_NAME":"QIANFAN-13","OBJECT_ID":"2024-140N","EPOCH":"2026-07-15T20:54:10.836864","CLASSIFICATION_TYPE":"U","MEAN_MOTION":13.51018372,"ECCENTRICITY":0.00108702,"INCLINATION":88.9728,"RA_OF_ASC_NODE":277.0813,"ARG_OF_PERICENTER":312.5896,"MEAN_ANOMALY":47.4338,"EPHEMERIS_TYPE":0,"NORAD_CAT_ID":60391,"ELEMENT_SET_NO":999,"REV_AT_EPOCH":9631,"BSTAR":0.00013547066,"MEAN_MOTION_DOT":9.9e-7,"MEAN_MOTION_DDOT":0},{"OBJECT_NAME":"QIANFAN-14","OBJECT_ID":"2024-140P","EPOCH":"2026-07-15T21:29:50.424000","CLASSIFICATION_TYPE":"U","MEAN_MOTION":13.51011917,"ECCENTRICITY":0.00145339,"INCLINATION":88.9707,"RA_OF_ASC_NODE":276.9309,"ARG_OF_PERICENTER":310.9197,"MEAN_ANOMALY":49.0695,"EPHEMERIS_TYPE":0,"NORAD_CAT_ID":60392,"ELEMENT_SET_NO":999,"REV_AT_EPOCH":9632,"BSTAR":0.00012596131,"MEAN_MOTION_DOT":9.3e-7,"MEAN_MOTION_DDOT":0},{"OBJECT_NAME":"QIANFAN-15","OBJECT_ID":"2024-140Q","EPOCH":"2026-07-15T21:41:35.834208","CLASSIFICATION_TYPE":"U","MEAN_MOTION":13.51012343,"ECCENTRICITY":0.00101084,"INCLINATION":88.9731,"RA_OF_ASC_NODE":276.9377,"ARG_OF_PERICENTER":296.059,"MEAN_ANOMALY":63.952,"EPHEMERIS_TYPE":0,"NORAD_CAT_ID":60393,"ELEMENT_SET_NO":999,"REV_AT_EPOCH":9631,"BSTAR":0.0001175514,"MEAN_MOTION_DOT":8.8e-7,"MEAN_MOTION_DDOT":0},{"OBJECT_NAME":"QIANFAN-16","OBJECT_ID":"2024-140R","EPOCH":"2026-07-15T21:23:51.825984","CLASSIFICATION_TYPE":"U","MEAN_MOTION":13.51020342,"ECCENTRICITY":0.00125881,"INCLINATION":88.9734,"RA_OF_ASC_NODE":277.0652,"ARG_OF_PERICENTER":316.2233,"MEAN_ANOMALY":43.7919,"EPHEMERIS_TYPE":0,"NORAD_CAT_ID":60394,"ELEMENT_SET_NO":999,"REV_AT_EPOCH":9622,"BSTAR":0.00014096881,"MEAN_MOTION_DOT":0.00000103,"MEAN_MOTION_DDOT":0}]}
